NORAD_CAT_ID,OBJECT_NAME,OBJECT_TYPE,EPOCH,MEAN_MOTION,ECCENTRICITY,INCLINATION,RA_OF_ASC_NODE,ARG_OF_PERICENTER,MEAN_ANOMALY,BSTAR,MEAN_MOTION_DOT,MEAN_MOTION_DDOT,TLE_LINE0,TLE_LINE1,TLE_LINE2,SEMIMAJOR_AXIS,PERIOD,APOGEE,PERIGEE,DECAYED
49451.0,STARLINK-3125,PAYLOAD,2022-08-01 10:09:29,15.08836983,0.0001821,53.2205,8.0783,58.6503,301.4667,0.00012684,1.731e-05,0.0,0 STARLINK-3125,1 49451U 21104AV  22213.42325917  .00001731  00000-0  12684-3 0  9990,2 49451  53.2205   8.0783 0001821  58.6503 301.4667 15.08836983 41145,6917.89,95.438,541.014,538.495,0.0
49451.0,STARLINK-3125,PAYLOAD,2022-08-01 13:20:15,15.08838638,0.0001821,53.2204,7.4836,58.7649,301.3521,0.00013709,1.894e-05,0.0,0 STARLINK-3125,1 49451U 21104AV  22213.55573829  .00001894  00000-0  13709-3 0  9990,2 49451  53.2204   7.4836 0001821  58.7649 301.3521 15.08838638 40087,6917.885,95.438,541.009,538.49,0.0
49451.0,STARLINK-3125,PAYLOAD,2022-08-01 19:41:48,15.0884298,0.0001831999999999,53.2204,6.2942,59.0895,301.0277,0.0001378,1.906e-05,0.0,0 STARLINK-3125,1 49451U 21104AV  22213.82069595  .00001906  00000-0  13780-3 0  9993,2 49451  53.2204   6.2942 0001832  59.0895 301.0277 15.08842980 40126,6917.871,95.437,541.004,538.469,0.0
49451.0,STARLINK-3125,PAYLOAD,2022-08-02 03:38:43,15.08846288,0.0001836,53.2204,4.8075,59.3482,300.7691,0.00015075,2.112e-05,0.0,0 STARLINK-3125,1 49451U 21104AV  22214.15189310  .00002112  00000-0  15075-3 0  9997,2 49451  53.2204   4.8075 0001836  59.3482 300.7691 15.08846288 41252,6917.861,95.437,540.996,538.456,0.0
49451.0,STARLINK-3125,PAYLOAD,2022-08-02 19:32:35,15.08836474,0.0001871,53.2208,1.8345,60.7664,299.3515,1.9878e-05,2.8e-07,0.0,0 STARLINK-3125,1 49451U 21104AV  22214.81430304  .00000028  00000-0  19878-4 0  9992,2 49451  53.2208   1.8345 0001871  60.7664 299.3515 15.08836474 40275,6917.891,95.438,541.0509999999998,538.462,0.0
49451.0,STARLINK-3125,PAYLOAD,2022-08-03 03:29:31,15.08839958,0.0001884,53.2209,0.3479,60.6075,299.5106,2.5169e-05,1.12e-06,0.0,0 STARLINK-3125,1 49451U 21104AV  22215.14550082  .00000112  00000-0  25169-4 0  9999,2 49451  53.2209   0.3479 0001884  60.6075 299.5106 15.08839958 41401,6917.880999999999,95.438,541.049,538.442,0.0
49451.0,STARLINK-3125,PAYLOAD,2022-08-03 09:51:03,15.08845392,0.0001849,53.2207,359.1578,61.8188,298.2991,3.6054e-05,2.86e-06,0.0,0 STARLINK-3125,1 49451U 21104AV  22215.41045642  .00000286  00000-0  36054-4 0  9997,2 49451  53.2207 359.1578 0001849  61.8188 298.2991 15.08845392 40364,6917.864000000001,95.437,541.008,538.45,0.0
49451.0,STARLINK-3125,PAYLOAD,2022-08-03 19:23:22,15.08845945,0.0001891,53.2192,357.3737,62.7435,297.375,4.6618e-05,4.54e-06,0.0,0 STARLINK-3125,1 49451U 21104AV  22215.80789431  .00000454  00000-0  46618-4 0  9995,2 49451  53.2192 357.3737 0001891  62.7435 297.3750 15.08845945 40420,6917.861999999999,95.437,541.035,538.419,0.0
49451.0,STARLINK-3125,PAYLOAD,2022-08-03 20:58:45,15.08847144,0.0001932,53.2186,357.0765,62.3331,297.7857,7.9149e-05,9.72e-06,0.0,0 STARLINK-3125,1 49451U 21104AV  22215.87413250  .00000972  00000-0  79149-4 0  9995,2 49451  53.2186 357.0765 0001932  62.3331 297.7857 15.08847144 41514,6917.859,95.437,541.06,538.387,0.0
49451.0,STARLINK-3125,PAYLOAD,2022-08-04 12:52:35,15.08850534,0.0001879,53.2186,354.1027,61.8014,298.3168,0.00012496,1.702e-05,0.0,0 STARLINK-3125,1 49451U 21104AV  22216.53652593  .00001702  00000-0  12496-3 0  9997,2 49451  53.2186 354.1027 0001879  61.8014 298.3168 15.08850534 40535,6917.848000000001,95.437,541.013,538.413,0.0
49451.0,STARLINK-3125,PAYLOAD,2022-08-04 19:14:09,15.0883712,0.0001888,53.2193,352.9137,59.7621,300.3558,5.0392e-05,5.14e-06,0.0,0 STARLINK-3125,1 49451U 21104AV  22216.80149658  .00000514  00000-0  50392-4 0  9998,2 49451  53.2193 352.9137 0001888  59.7621 300.3558 15.08837120 41658,6917.889,95.438,541.06,538.448,0.0
49451.0,STARLINK-3125,PAYLOAD,2022-08-05 11:08:00,15.08842048,0.0001685,53.2176,349.9385,56.8516,303.2637,3.35e-05,2.45e-06,0.0,0 STARLINK-3125,1 49451U 21104AV  22217.46389351  .00000245  00000-0  33500-4 0  9990,2 49451  53.2176 349.9385 0001685  56.8516 303.2637 15.08842048 40672,6917.874,95.437,540.905,538.573,0.0
49451.0,STARLINK-3125,PAYLOAD,2022-08-05 17:29:32,15.08844536,0.0001748,53.2191,348.7511,59.5788,300.5377,5.043100000000001e-05,5.15e-06,0.0,0 STARLINK-3125,1 49451U 21104AV  22217.72885138  .00000515  00000-0  50431-4 0  9995,2 49451  53.2191 348.7511 0001748  59.5788 300.5377 15.08844536 41797,6917.8669999999975,95.437,540.941,538.5219999999998,0.0
49451.0,STARLINK-3125,PAYLOAD,2022-08-06 10:58:42,15.08927551,0.0002592,53.219,345.4784,103.4161,256.712,0.0005434,8.391e-05,0.0,0 STARLINK-3125,1 49451U 21104AV  22218.45743113  .00008391  00000-0  54340-3 0  9994,2 49451  53.2190 345.4784 0002592 103.4161 256.7120 15.08927551 41904,6917.613,95.432,541.271,537.685,0.0
49451.0,STARLINK-3125,PAYLOAD,2022-08-06 20:31:06,15.08843208,0.000177,53.2196,343.6967,63.3876,296.7298,-1.0083e-05,-4.49e-06,0.0,0 STARLINK-3125,1 49451U 21104AV  22218.85493554 -.00000449  00000-0 -10083-4 0  9994,2 49451  53.2196 343.6967 0001770  63.3876 296.7298 15.08843208 40889,6917.871,95.437,540.96,538.511,0.0
49451.0,STARLINK-3125,PAYLOAD,2022-08-07 12:24:56,15.08892398,0.0001824,53.2187,340.7215,58.5888,301.5283,-0.00055433,-9.112e-05,0.0,0 STARLINK-3125,1 49451U 21104AV  22219.51731819 -.00009112  00000-0 -55433-3 0  9990,2 49451  53.2187 340.7215 0001824  58.5888 301.5283 15.08892398 40986,6917.72,95.434,540.847,538.323,0.0
49451.0,STARLINK-3125,PAYLOAD,2022-08-07 17:11:06,15.08845091,0.000169,53.2192,339.8294,52.3837,307.7308,9.149e-05,1.169e-05,0.0,0 STARLINK-3125,1 49451U 21104AV  22219.71605214  .00001169  00000-0  91490-4 0  9997,2 49451  53.2192 339.8294 0001690  52.3837 307.7308 15.08845091 42093,6917.865,95.437,540.899,538.561,0.0
49451.0,STARLINK-3125,PAYLOAD,2022-08-08 10:40:21,15.088371400000002,0.0001774999999999,53.2184,336.5591,62.9115,297.2058,0.00017201,2.45e-05,0.0,0 STARLINK-3125,1 49451U 21104AV  22220.44469594  .00002450  00000-0  17201-3 0  9999,2 49451  53.2184 336.5591 0001775  62.9115 297.2058 15.08837140 41122,6917.889,95.438,540.982,538.526,0.0
49451.0,STARLINK-3125,PAYLOAD,2022-08-08 17:01:53,15.08847915,0.0001817,53.2179,335.3712,62.3723,297.7454,0.0002717,4.04e-05,0.0,0 STARLINK-3125,1 49451U 21104AV  22220.70965092  .00004040  00000-0  27170-3 0  9995,2 49451  53.2179 335.3712 0001817  62.3723 297.7454 15.08847915 42244,6917.856,95.437,540.9780000000002,538.464,0.0
49451.0,STARLINK-3125,PAYLOAD,2022-08-09 12:06:30,15.08855492,0.0001631999999999,53.2194,331.8023,71.6129,288.5041,0.00017703,2.532e-05,0.0,0 STARLINK-3125,1 49451U 21104AV  22221.50452219  .00002532  00000-0  17703-3 0  9991,2 49451  53.2194 331.8023 0001632  71.6129 288.5041 15.08855492 41287,6917.833000000001,95.437,540.827,538.569,0.0
49451.0,STARLINK-3125,PAYLOAD,2022-08-09 18:28:03,15.08842419,0.0001544,53.2174,330.6111,50.2322,309.8806,-3.5623e-05,-8.55e-06,0.0,0 STARLINK-3125,1 49451U 21104AV  22221.76948668 -.00000855  00000-0 -35623-4 0  9997,2 49451  53.2174 330.6111 0001544  50.2322 309.8806 15.08842419 42406,6917.873000000001,95.437,540.806,538.67,0.0
49451.0,STARLINK-3125,PAYLOAD,2022-08-10 00:49:36,15.0883131,0.0001839,53.2178,329.4236,49.5247,310.5906,-0.00017333,-3.045e-05,0.0,0 STARLINK-3125,1 49451U 21104AV  22222.03445259 -.00003045  00000-0 -17333-3 0  9997,2 49451  53.2178 329.4236 0001839  49.5247 310.5906 15.08831310 42440,6917.906999999997,95.438,541.044,538.5,0.0
49451.0,STARLINK-3125,PAYLOAD,2022-08-10 11:57:19,15.08820453,0.0001524,53.2174,327.3396,54.1317,305.9816,-0.00031838,-5.349e-05,0.0,0 STARLINK-3125,1 49451U 21104AV  22222.49814442 -.00005349  00000-0 -31838-3 0  9996,2 49451  53.2174 327.3396 0001524  54.1317 305.9816 15.08820453 41433,6917.94,95.439,540.859,538.751,0.0
49451.0,STARLINK-3125,PAYLOAD,2022-08-10 13:32:42,15.08819806,0.0001530999999999,53.2175,327.0420000000001,56.4963,303.6175,-0.00031667,-5.321e-05,0.0,0 STARLINK-3125,1 49451U 21104AV  22222.56438548 -.00005321  00000-0 -31667-3 0  9993,2 49451  53.2175 327.0420 0001531  56.4963 303.6175 15.08819806 42523,6917.941999999999,95.439,540.866,538.748,0.0
49451.0,STARLINK-3125,PAYLOAD,2022-08-10 18:18:52,15.08819435,0.0001571999999999,53.2176,326.1514,52.3012,307.8122,-0.00025801,-4.39e-05,0.0,0 STARLINK-3125,1 49451U 21104AV  22222.76310863 -.00004390  00000-0 -25801-3 0  9992,2 49451  53.2176 326.1514 0001572  52.3012 307.8122 15.08819435 41472,6917.943,95.439,540.896,538.721,0.0
49451.0,STARLINK-3125,PAYLOAD,2022-08-11 13:23:31,15.08821118,0.0001575999999999,53.2175,322.5831,50.2193,309.8938,2.3169e-05,8.1e-07,0.0,0 STARLINK-3125,1 49451U 21104AV  22223.55799856  .00000081  00000-0  23169-4 0  9990,2 49451  53.2175 322.5831 0001576  50.2193 309.8938 15.08821118 41595,6917.938,95.439,540.893,538.7130000000002,0.0
49451.0,STARLINK-3125,PAYLOAD,2022-08-11 16:34:17,15.08822511,0.0001571,53.2174,321.9886,50.1961,309.9169,8.6946e-05,1.095e-05,0.0,0 STARLINK-3125,1 49451U 21104AV  22223.69047998  .00001095  00000-0  86946-4 0  9996,2 49451  53.2174 321.9886 0001571  50.1961 309.9169 15.08822511 42691,6917.934,95.439,540.886,538.712,0.0
49451.0,STARLINK-3125,PAYLOAD,2022-08-12 11:38:55,15.08842115,0.0001618,53.2174,318.4202,50.1855,309.928,0.00062632,9.694e-05,0.0,0 STARLINK-3125,1 49451U 21104AV  22224.48536513  .00009694  00000-0  62632-3 0  9998,2 49451  53.2174 318.4202 0001618  50.1855 309.9280 15.08842115 42818,6917.874,95.437,540.8580000000002,538.62,0.0
49451.0,STARLINK-3125,PAYLOAD,2022-08-12 18:00:27,15.08855272,0.0001644,53.2174,317.2307,48.4376,311.6757,0.00077374,0.00012053,0.0,0 STARLINK-3125,1 49451U 21104AV  22224.75032250  .00012053  00000-0  77374-3 0  9999,2 49451  53.2174 317.2307 0001644  48.4376 311.6757 15.08855272 41779,6917.834,95.437,540.836,538.561,0.0
